[{"OBJECT_NAME":"STARLINK-1742","OBJECT_ID":"2020-062BD","EPOCH":"2026-03-10T00:00:02.999808","MEAN_MOTION":15.82363369,"ECCENTRICITY":0.00078051,"INCLINATION":53.0262,"RA_OF_ASC_NODE":254.219,"ARG_OF_PERICENTER":155.9322,"MEAN_ANOMALY":96.6249,"EPHEMERIS_TYPE":0,"CLASSIFICATION_TYPE":"U","NORAD_CAT_ID":46376,"ELEMENT_SET_NO":999,"REV_AT_EPOCH":592,"BSTAR":0.0013794836,"MEAN_MOTION_DOT":0.00301937,"MEAN_MOTION_DDOT":0},{"OBJECT_NAME":"STARLINK-36372","OBJECT_ID":"2026-035L","EPOCH":"2026-03-09T22:00:01.999584","MEAN_MOTION":15.87080263,"ECCENTRICITY":0.00012323,"INCLINATION":97.2691,"RA_OF_ASC_NODE":1.2744,"ARG_OF_PERICENTER":82.303,"MEAN_ANOMALY":7.0839,"EPHEMERIS_TYPE":0,"CLASSIFICATION_TYPE":"U","NORAD_CAT_ID":67889,"ELEMENT_SET_NO":999,"REV_AT_EPOCH":379,"BSTAR":-0.0054539435,"MEAN_MOTION_DOT":-0.01247505,"MEAN_MOTION_DDOT":0}]
